NORAD_CAT_ID,OBJECT_NAME,OBJECT_TYPE,EPOCH,MEAN_MOTION,ECCENTRICITY,INCLINATION,RA_OF_ASC_NODE,ARG_OF_PERICENTER,MEAN_ANOMALY,BSTAR,MEAN_MOTION_DOT,MEAN_MOTION_DDOT,TLE_LINE0,TLE_LINE1,TLE_LINE2,SEMIMAJOR_AXIS,PERIOD,APOGEE,PERIGEE,DECAYED
55282.0,STARLINK-5330,PAYLOAD,2024-07-31 15:03:38,14.98324832,0.0002982,69.9988,81.958,267.971,92.1107,0.00027328,3.169e-05,0.0,0 STARLINK-5330,1 55282U 23010P   24213.62753464  .00003169  00000-0  27328-3 0  9991,2 55282  69.9988  81.9580 0002982 267.9710  92.1107 14.98324832 84991,6950.209,96.107,574.146,570.001,0.0
55282.0,STARLINK-5330,PAYLOAD,2024-07-31 23:04:18,14.98334868,0.0002903,69.999,81.1165,267.4831,92.5995,0.00039675,4.645e-05,0.0,0 STARLINK-5330,1 55282U 23010P   24213.96132929  .00004645  00000-0  39675-3 0  9993,2 55282  69.9990  81.1165 0002903 267.4831  92.5995 14.98334868 85043,6950.178,96.107,574.06,570.025,0.0
55282.0,STARLINK-5330,PAYLOAD,2024-08-01 15:05:39,14.98346447,0.0002897,69.9989,79.4329,267.8053,92.2774,0.00018949,2.17e-05,0.0,0 STARLINK-5330,1 55282U 23010P   24214.62892377  .00002170  00000-0  18949-3 0  9999,2 55282  69.9989  79.4329 0002897 267.8053  92.2774 14.98346447 85144,6950.142,96.106,574.02,569.994,0.0
55282.0,STARLINK-5330,PAYLOAD,2024-08-01 21:30:11,14.98346665,0.0002912,69.9991,78.7589,266.3835,93.6991,8.7786e-05,9.55e-06,0.0,0 STARLINK-5330,1 55282U 23010P   24214.89596225  .00000955  00000-0  87786-4 0  9996,2 55282  69.9991  78.7589 0002912 266.3835  93.6991 14.98346665 84885,6950.141,96.106,574.03,569.982,0.0
55282.0,STARLINK-5330,PAYLOAD,2024-08-01 23:06:18,14.98348485,0.0002837,69.9997,78.5907,266.187,93.8965,0.00011179,1.242e-05,0.0,0 STARLINK-5330,1 55282U 23010P   24214.96271985  .00001242  00000-0  11179-3 0  9999,2 55282  69.9997  78.5907 0002837 266.1870  93.8965 14.98348485 85196,6950.136,96.106,573.972,570.029,0.0
55282.0,STARLINK-5330,PAYLOAD,2024-08-02 15:07:40,14.98336709,0.0002562,70.0011,76.9073,272.1245,87.9621,5.2326e-05,5.32e-06,0.0,0 STARLINK-5330,1 55282U 23010P   24215.63032494  .00000532  00000-0  52326-4 0  9995,2 55282  70.0011  76.9073 0002562 272.1245  87.9621 14.98336709 85290,6950.172,96.107,573.818,570.257,0.0
55282.0,STARLINK-5330,PAYLOAD,2024-08-02 21:32:12,14.98332655,0.0002741,69.9996,76.2347,269.1971,90.8874,-9.059e-05,-1.174e-05,0.0,0 STARLINK-5330,1 55282U 23010P   24215.89736891 -.00001174  00000-0 -90590-4 0  9995,2 55282  69.9996  76.2347 0002741 269.1971  90.8874 14.98332655 85038,6950.185,96.107,573.955,570.145,0.0
55282.0,STARLINK-5330,PAYLOAD,2024-08-03 15:09:40,14.98338972,0.0002969,69.999,74.3841,272.4301,87.6518,-5.9363e-05,-8.01e-06,0.0,0 STARLINK-5330,1 55282U 23010P   24216.63172177 -.00000801  00000-0 -59363-4 0  9998,2 55282  69.9990  74.3841 0002969 272.4301  87.6518 14.98338972 85448,6950.165,96.106,574.094,569.967,0.0
55282.0,STARLINK-5330,PAYLOAD,2024-08-03 19:58:04,14.98337731,0.0003142,69.9993,73.879,271.0377,89.0422,3.3842e-05,3.11e-06,0.0,0 STARLINK-5330,1 55282U 23010P   24216.83199918  .00000311  00000-0  33842-4 0  9990,2 55282  69.9993  73.8790 0003142 271.0377  89.0422 14.98337731 85172,6950.169,96.107,574.218,569.85,0.0
55282.0,STARLINK-5330,PAYLOAD,2024-08-03 21:34:12,14.98338061,0.000296,69.9993,73.7105,272.3776,87.7045,0.00010872,1.205e-05,0.0,0 STARLINK-5330,1 55282U 23010P   24216.89875738  .00001205  00000-0  10872-3 0  9997,2 55282  69.9993  73.7105 0002960 272.3776  87.7045 14.98338061 85482,6950.168,96.106,574.09,569.976,0.0
55282.0,STARLINK-5330,PAYLOAD,2024-08-04 13:35:34,14.98323108,0.0002906,69.9996,72.0266,274.6983,85.3844,8.9833e-05,9.79e-06,0.0,0 STARLINK-5330,1 55282U 23010P   24217.56636596  .00000979  00000-0  89833-4 0  9990,2 55282  69.9996  72.0266 0002906 274.6983  85.3844 14.98323108 85285,6950.214,96.107,574.099,570.059,0.0
55282.0,STARLINK-5330,PAYLOAD,2024-08-04 15:11:42,14.9832351,0.000291,69.9996,71.8582,274.6152,85.4674,9.0589e-05,9.88e-06,0.0,0 STARLINK-5330,1 55282U 23010P   24217.63312587  .00000988  00000-0  90589-4 0  9999,2 55282  69.9996  71.8582 0002910 274.6152  85.4674 14.98323510 85599,6950.213,96.107,574.1,570.055,0.0
55282.0,STARLINK-5330,PAYLOAD,2024-08-04 21:36:14,14.98328719,0.0002816,69.9996,71.1856,272.6687,87.415,0.0001569,1.78e-05,0.0,0 STARLINK-5330,1 55282U 23010P   24217.90016213  .00001780  00000-0  15690-3 0  9996,2 55282  69.9996  71.1856 0002816 272.6687  87.4150 14.98328719 85634,6950.197,96.107,574.019,570.105,0.0
55282.0,STARLINK-5330,PAYLOAD,2024-08-05 00:48:29,14.98332632,0.0002773,69.9998,70.8487,272.5519,87.5323,0.00020527,2.357e-05,0.0,0 STARLINK-5330,1 55282U 23010P   24218.03367907  .00002357  00000-0  20527-3 0  9996,2 55282  69.9998  70.8487 0002773 272.5519  87.5323 14.98332632 85358,6950.185,96.107,573.977,570.122,0.0
55282.0,STARLINK-5330,PAYLOAD,2024-08-05 15:13:09,14.98708479,0.000586,70.0001,69.332,279.97,80.0797,0.0039994,0.00048442,0.0,0 STARLINK-5330,1 55282U 23010P   24218.63414100  .00048442  00000-0  39994-2 0  9992,2 55282  70.0001  69.3320 0005860 279.9700  80.0797 14.98708479 85447,6949.023,96.083,574.96,566.816,0.0
55282.0,STARLINK-5330,PAYLOAD,2024-08-06 06:00:00,14.98336652,0.0003043,70.0002,67.7808,271.8023,167.2889,-0.0029762,-0.00035432,0.0,0 STARLINK-5330,1 55282U 23010P   24219.25001157 -.00035432  00000-0 -29762-2 0  9994,2 55282  70.0002  67.7808 0003043 271.8023 167.2889 14.98336652 85531,6950.172,96.107,574.152,569.922,0.0
55282.0,STARLINK-5330,PAYLOAD,2024-08-06 13:39:34,14.98330103,0.0002594,69.9998,66.9768,273.5348,86.5514,5.3974e-05,5.51e-06,0.0,0 STARLINK-5330,1 55282U 23010P   24219.56915451  .00000551  00000-0  53974-4 0  9995,2 55282  69.9998  66.9768 0002594 273.5348  86.5514 14.98330103 85585,6950.193,96.107,573.86,570.255,0.0
55282.0,STARLINK-5330,PAYLOAD,2024-08-06 21:40:15,14.98328775,0.0002675,69.9998,66.1351,271.719,88.3662,3.6578e-05,3.43e-06,0.0,0 STARLINK-5330,1 55282U 23010P   24219.90295593  .00000343  00000-0  36578-4 0  9991,2 55282  69.9998  66.1351 0002675 271.7190  88.3662 14.98328775 85935,6950.197,96.107,573.921,570.203,0.0
55282.0,STARLINK-5330,PAYLOAD,2024-08-06 23:16:23,14.9832948,0.0002639,69.9999,65.9671,273.157,86.9287,4.9107e-05,4.93e-06,0.0,0 STARLINK-5330,1 55282U 23010P   24219.96971560  .00000493  00000-0  49107-4 0  9990,2 55282  69.9999  65.9671 0002639 273.1570  86.9287 14.98329480 85948,6950.194,96.107,573.894,570.225,0.0
55282.0,STARLINK-5330,PAYLOAD,2024-08-07 20:06:23,14.97497426,0.0003462,69.9997,63.7795,8.241,351.8804,0.015148,0.00181478,0.0,0 STARLINK-5330,1 55282U 23010P   24220.83776710  .00181478  00000-0  15148-1 0  9996,2 55282  69.9997  63.7795 0003462   8.2410 351.8804 14.97497426 85779,6952.769,96.16,577.041,572.227,0.0
55282.0,STARLINK-5330,PAYLOAD,2024-08-08 14:00:01,14.98335488,0.0003231,70.001,61.8968,265.7951,155.7255,0.001187,0.00014101,0.0,0 STARLINK-5330,1 55282U 23010P   24221.58335648  .00014101  00000-0  11870-2 0  9997,2 55282  70.0010  61.8968 0003231 265.7951 155.7255 14.98335488  5822,6950.176,96.107,574.287,569.795,0.0
55282.0,STARLINK-5330,PAYLOAD,2024-08-08 18:32:01,14.98329798,0.0002932,69.9999,61.4221,269.6356,90.4467,7.88e-05,8.47e-06,0.0,0 STARLINK-5330,1 55282U 23010P   24221.77224316  .00000847  00000-0  78800-4 0  9997,2 55282  69.9999  61.4221 0002932 269.6356  90.4467 14.98329798 85917,6950.194,96.107,574.096,570.021,0.0
55282.0,STARLINK-5330,PAYLOAD,2024-08-09 14:00:01,14.98345576,0.000325,70.0013,59.3754,268.4781,145.4373,0.00062742,7.404e-05,0.0,0 STARLINK-5330,1 55282U 23010P   24222.58334491  .00007404  00000-0  62742-3 0  9996,2 55282  70.0013  59.3754 0003250 268.4781 145.4373 14.98345576  5828,6950.145,96.106,574.269,569.751,0.0
55282.0,STARLINK-5330,PAYLOAD,2024-08-09 22:00:01,14.98255387,0.0002999,70.0013,58.535,276.8603,134.5579,0.0048883,0.0005861,0.0,0 STARLINK-5330,1 55282U 23010P   24222.91668981  .00058610  00000-0  48883-2 0  9991,2 55282  70.0013  58.5350 0002999 276.8603 134.5579 14.98255387 86080,6950.424,96.112,574.373,570.204,0.0
55282.0,STARLINK-5330,PAYLOAD,2024-08-10 12:11:34,14.98304475,0.0003169,69.9995,57.044,270.824,89.2556,-0.00017594,-2.19e-05,0.0,0 STARLINK-5330,1 55282U 23010P   24223.50803597 -.00002190  00000-0 -17594-3 0  9991,2 55282  69.9995  57.0440 0003169 270.8240  89.2556 14.98304475 86175,6950.272,96.109,574.339,569.934,0.0
55282.0,STARLINK-5330,PAYLOAD,2024-08-10 13:47:41,14.9831751,0.00029,70.0003,56.8825,273.0491,87.0337,-0.00021789,-2.691e-05,0.0,0 STARLINK-5330,1 55282U 23010P   24223.57479033 -.00002691  00000-0 -21789-3 0  9999,2 55282  70.0003  56.8825 0002900 273.0491  87.0337 14.98317510 86488,6950.232,96.108,574.112,570.081,0.0
55282.0,STARLINK-5330,PAYLOAD,2024-08-10 20:12:12,14.98331642,0.0002635,70.0006,56.2037,268.597,91.4887,0.00017964,2.051e-05,0.0,0 STARLINK-5330,1 55282U 23010P   24223.84181504  .00002051  00000-0  17964-3 0  9990,2 55282  70.0006  56.2037 0002635 268.5970  91.4887 14.98331642 86229,6950.188,96.107,573.884,570.221,0.0
55282.0,STARLINK-5330,PAYLOAD,2024-08-10 21:48:20,14.9833039,0.0002632,70.0012,56.0362,262.0054,98.0806,0.00022461,2.588e-05,0.0,0 STARLINK-5330,1 55282U 23010P   24223.90857517  .00002588  00000-0  22461-3 0  9994,2 55282  70.0012  56.0362 0002632 262.0054  98.0806 14.98330390 86531,6950.192,96.107,573.886,570.227,0.0
55282.0,STARLINK-5330,PAYLOAD,2024-08-11 22:00:01,14.98390301,0.0003106,70.0018,53.4924,270.3994,125.9518,-0.0071582,-0.00084614,0.0,0 STARLINK-5330,1 55282U 23010P   24224.91668981 -.00084614  00000-0 -71582-2 0  9990,2 55282  70.0018  53.4924 0003106 270.3994 125.9518 14.98390301 86385,6950.006,96.103,574.03,569.713,0.0
55282.0,STARLINK-5330,PAYLOAD,2024-08-12 05:51:01,14.98349019,0.0003057,70.0014,52.6681,267.415,92.6659,0.0009226,0.00010938,0.0,0 STARLINK-5330,1 55282U 23010P   24225.24376478  .00010938  00000-0  92260-3 0  9997,2 55282  70.0014  52.6681 0003057 267.4150  92.6659 14.98349019 86430,6950.134,96.106,574.124,569.874,0.0
